STARLINK-1420           
1 45695C 20035AQ  21334.11303484  .00009294  00000-0  62286-3 0  3340
2 45695  53.0525 202.3195 0002172  75.9894 137.8977 15.06378763    16
STARLINK-1422           
1 45696C 20035AR  21334.10207760  .00042616  00000-0  28575-2 0  3347
2 45696  53.0536 222.3663 0002523  58.7108  45.7439 15.06325970    10
STARLINK-1351           
1 45697C 20035AS  21334.13512379  .00009866  00000-0  66110-3 0  3344
2 45697  53.0537 202.2230 0002235  80.4490 333.2963 15.06383685    19
STARLINK-1370           
1 45698C 20035AT  21334.14097245 -.00034856  00000-0 -23368-2 0  3342
2 45698  53.0529 202.2022 0002400  66.7879  78.6618 15.06409432    18
STARLINK-1398           
1 45699C 20035AU  21334.14252249  .00010231  00000-0  68573-3 0  3347
2 45699  53.0517 202.1825 0002011  73.3850 140.5087 15.06376242    18
STARLINK-1400           
1 45700C 20035AV  21334.13888306  .00010242  00000-0  68637-3 0  3341
2 45700  53.0533 202.2159 0002617  77.2215 136.9060 15.06379374    19
STARLINK-1403           
1 45701C 20035AW  21334.10035107  .00015618  00000-0  10470-2 0  3345
2 45701  53.0535 202.3727 0002169  78.9340 126.1168 15.06361254    11
STARLINK-1405           
1 45702C 20035AX  21334.13714022 -.00008294  00000-0 -55564-3 0  3347
2 45702  53.0528 202.2127 0002222  79.8538  64.7811 15.06411773    10
STARLINK-1407           
1 45703C 20035AY  21334.14635113  .00010171  00000-0  68149-3 0  3340
2 45703  53.0529 202.1798 0002164  72.7022 141.9296 15.06385535    11
STARLINK-1409           
1 45704C 20035AZ  21334.09227330 -.00015785  00000-0 -10577-2 0  3342
2 45704  53.0580 232.3751 0002067  66.3552  74.9995 15.06411076    13
STARLINK-1410           
1 45705C 20035BA  21334.12030918  .00001108  00000-0  74256-4 0  3349
2 45705  53.0525 232.2990 0001963  69.5577  78.8145 15.06395654    16
STARLINK-1411           
1 45706C 20035BB  21334.12256394  .00008963  00000-0  60059-3 0  3349
2 45706  53.0522 202.2797 0002061  80.3680 125.1893 15.06385080    10
STARLINK-1412           
1 45707C 20035BC  21334.11873924  .00008976  00000-0  60150-3 0  3349
2 45707  53.0528 202.2996 0002215  79.2830 125.5178 15.06383166    16
STARLINK-1418           
1 45708C 20035BD  21334.13107267  .00002641  00000-0  17690-3 0  3346
2 45708  53.0523 202.2477 0002202  75.1396 336.5951 15.06398016    17
STARLINK-1421           
1 45709C 20035BE  21334.13145048  .00009678  00000-0  64853-3 0  3346
2 45709  53.0515 202.2316 0002086  77.5926 136.1883 15.06382440    18
STARLINK-1423           
1 45710C 20035BF  21334.12796420  .00009433  00000-0  63201-3 0  3348
2 45710  53.0512 202.2599 0002065  77.6954 137.1704 15.06388312    16
STARLINK-1433           
1 45711C 20035BG  21334.14704581 -.00032903  00000-0 -22060-2 0  3345
2 45711  53.0531 202.1717 0002219  63.6005 354.8044 15.06406580    15
STARLINK-1434           
1 45712C 20035BH  21334.14312484  .00009015  00000-0  60394-3 0  3342
2 45712  53.0535 202.1929 0002169  78.0514 339.0679 15.06393966    16
STARLINK-1436 (VISORSAT)
1 45713C 20035BJ  21334.11509943  .00011636  00000-0  77971-3 0  3349
2 45713  53.0519 222.3202 0001968  74.6368  80.4585 15.06381216    10
STARLINK-1437           
1 45714C 20035BK  21334.11492337  .00009216  00000-0  61754-3 0  3341
2 45714  53.0525 202.3229 0002128  78.8139 125.2903 15.06384780    17
STARLINK-1439           
1 45716C 20035BM  21334.12125793  .00236726  00000-0  15507-2 0  3345
2 45716  53.0007  42.9629 0006432  61.0735   9.5391 15.74825530    17
STARLINK-1461           
1 45730C 20038A   21334.13368593  .00003684  00000-0  24682-3 0  3342
2 45730  53.0545  42.2187 0001225  70.9278 175.0230 15.06395133    15
STARLINK-1465           
1 45731C 20038B   21334.14358230 -.00001805  00000-0 -12091-3 0  3347
2 45731  53.0543  42.1909 0001406  59.2322 160.4027 15.06401982    18
STARLINK-1466           
1 45732C 20038C   21334.13800119  .00006281  00000-0  42089-3 0  3346
2 45732  53.0550  42.2061 0001385  62.6243 186.7379 15.06390029    13
STARLINK-1467           
1 45733C 20038D   21334.14530632 -.00004813  00000-0 -32248-3 0  3345
2 45733  53.0554  42.1845 0001597  59.7051 189.2803 15.06405302    17
STARLINK-1468           
1 45734C 20038E   21334.12621163  .00007850  00000-0  52599-3 0  3347
2 45734  53.0548  42.2552 0001097  62.8164 182.4303 15.06387442    16
STARLINK-1471           
1 45735C 20038F   21334.13055359 -.00013596  00000-0 -91089-3 0  3340
2 45735  53.0547  42.2449 0001773  59.8877   9.0316 15.06414897    12
STARLINK-1472           
1 45736C 20038G   21334.14200667  .00002865  00000-0  19198-3 0  3342
2 45736  53.0546  42.1875 0001120  64.4672 186.6168 15.06397320    13
STARLINK-1474           
1 45738C 20038J   21334.14704326  .00003032  00000-0  20315-3 0  3345
2 45738  53.0532  42.1685 0001318  75.4368 142.9787 15.06395820    17
STARLINK-1475           
1 45739C 20038K   21334.13888515 -.00002921  00000-0 -19568-3 0  3344
2 45739  53.0546   2.2035 0001560  60.2222  33.9090 15.06402307    14
STARLINK-1479           
1 45740C 20038L   21334.12672471  .00006277  00000-0  42061-3 0  3347
2 45740  53.0543  42.2675 0001535  63.1104   5.0719 15.06390395    11
STARLINK-1480           
1 45741C 20038M   21334.12970357 -.00006959  00000-0 -46633-3 0  3340
2 45741  53.0556  42.2538 0001562  63.8402 180.5035 15.06397992    12
STARLINK-1481           
1 45742C 20038N   21334.11788154  .00008167  00000-0  54682-3 0  3346
2 45742  53.0549  42.2971 0001210  69.4661 150.7330 15.06416472    17
STARLINK-1483           
1 45743C 20038P   21334.12309657 -.00017656  00000-0 -11830-2 0  3347
2 45743  53.0547  42.2813 0001476  69.0628 359.3992 15.06413852    14
STARLINK-1500           
1 45744C 20038Q   21334.14565568 -.00001975  00000-0 -13229-3 0  3347
2 45744  53.0554  42.1857 0001234  67.1182   3.7594 15.06403733    11
STARLINK-1503           
1 45745C 20038R   21334.13454382 -.00007319  00000-0 -49034-3 0  3349
2 45745  53.0549  42.2315 0001270  69.9641   0.6031 15.06410917    10
STARLINK-1504           
1 45746C 20038S   21334.11023994 -.00004989  00000-0 -33431-3 0  3343
2 45746  53.0539  42.3348 0001527  65.4036 153.3383 15.06395931    15
STARLINK-1506           
1 45747C 20038T   21334.11824708 -.00015739  00000-0 -10546-2 0  3342
2 45747  53.0552  42.2983 0001473  68.2886 173.8661 15.06411585    19
STARLINK-1507           
1 45748C 20038U   21334.14392132  .00002809  00000-0  18820-3 0  3343
2 45748  53.0538  42.2148 0001215  69.8219  16.7714 15.06398744    13
STARLINK-1391           
1 45750C 20038W   21334.13906587  .00003547  00000-0  23766-3 0  3345
2 45750  53.0549  22.2154 0001668  54.8137 210.3216 15.06394784    17
STARLINK-1464           
1 45751C 20038X   21334.13474810  .00006032  00000-0  40418-3 0  3340
2 45751  53.0540  22.2225 0001499  75.0300 186.6794 15.06389834    13
STARLINK-1469           
1 45752C 20038Y   21334.07832634 -.00040071  00000-0 -24463-3 0  3341
2 45752  53.0066 173.2708 0001459  47.9942 173.6976 15.76735871    17
STARLINK-1476           
1 45753C 20038Z   21334.14724981 -.00004088  00000-0 -27391-3 0  3346
2 45753  53.0558  22.1739 0001139  64.6075 204.9246 15.06404979    11
STARLINK-1477           
1 45754C 20038AA  21334.14168347 -.00009888  00000-0 -66273-3 0  3340
2 45754  53.0548  22.1996 0001481  67.1437 152.2037 15.06397245    16
STARLINK-1478           
1 45755C 20038AB  21334.14604420  .00004203  00000-0  28160-3 0  3345
2 45755  53.0548  22.1836 0001326  65.2916  77.7218 15.06390961    19
STARLINK-1484           
1 45756C 20038AC  21334.14221573 -.00006765  00000-0 -45338-3 0  3343
2 45756  53.0550  22.1942 0001546  73.1542  69.0733 15.06396026    12
STARLINK-1486           
1 45757C 20038AD  21334.14496774 -.00017159  00000-0 -11499-2 0  3340
2 45757  53.0546  22.1836 0001207  61.7350 355.4052 15.06410145    19
STARLINK-1487           
1 45758C 20038AE  21334.14218655 -.00005844  00000-0 -39165-3 0  3340
2 45758  53.0542  22.1940 0001643  66.2646  15.8024 15.06395879    16
STARLINK-1493           
1 45759C 20038AF  21334.13438986  .00003727  00000-0  24974-3 0  3349
2 45759  53.0541  22.2297 0001347  68.6614  71.1061 15.06386556    12
STARLINK-1494           
1 45760C 20038AG  21334.13821582  .00003860  00000-0  25866-3 0  3348
2 45760  53.0552  22.2192 0001350  66.2320  74.3039 15.06393182    15
STARLINK-1495           
1 45761C 20038AH  21334.14134263  .00009005  00000-0  12342-3 0  3345
2 45761  53.0559 352.5095 0003211  56.1419 337.8066 15.56731798    10
STARLINK-1499           
1 45762C 20038AJ  21334.13092869 -.00006975  00000-0 -46740-3 0  3344
2 45762  53.0552  22.2484 0001507  60.3151 200.6613 15.06398242    16
STARLINK-1501           
1 45763C 20038AK  21334.10366343 -.00026421  00000-0 -16127-3 0  3347
2 45763  53.0534 314.8368 0001283  71.0048 236.3310 15.76728235    19
STARLINK-1502           
1 45764C 20038AL  21334.14650976 -.00006425  00000-0 -43047-3 0  3343
2 45764  53.0542  22.1638 0001417  68.1382 317.3842 15.06404671    13
STARLINK-1509           
1 45766C 20038AN  21334.14604034 -.00000496  00000-0 -33266-4 0  3344
2 45766  53.0538  22.1846 0001437  64.7140  18.2702 15.06396043    12
STARLINK-1511           
1 45767C 20038AP  21334.13837073 -.00008320  00000-0 -55747-3 0  3346
2 45767  53.0548  22.2124 0001485  71.4865   9.8651 15.06407516    13
STARLINK-1521           
1 45768C 20038AQ  21334.14550808  .00003311  00000-0  22181-3 0  3345
2 45768  53.0559  22.1857 0001312  57.2288 162.7960 15.06397796    18
STARLINK-1459           
1 45769C 20038AR  21334.14183104 -.00015721  00000-0 -10534-2 0  3345
2 45769  53.0551  42.1975 0001443  62.5152   7.6043 15.06412340    10
STARLINK-1462           
1 45770C 20038AS  21334.14602010 -.00012139  00000-0 -81329-3 0  3340
2 45770  53.0530   2.1835 0001635  59.4775  18.4934 15.06411998    16
STARLINK-1463           
1 45771C 20038AT  21334.14830162 -.00005126  00000-0 -34356-3 0  3348
2 45771  53.0549   2.1699 0001772  58.4814  66.7701 15.06392983    10
